QIANFAN-1               
1 60379U 24140A   26027.46434627  .00000169  00000+0  24278-3 0  9990
2 60379  88.9771 294.5557 0019285  82.1506 278.1834 13.50991201 73522
QIANFAN-2               
1 60380U 24140B   26027.41911152  .00000165  00000+0  23684-3 0  9996
2 60380  88.9757 294.3934 0014492  57.6115 302.6436 13.50995259 73576
QIANFAN-3               
1 60381U 24140C   26027.42727118  .00000183  00000+0  26405-3 0  9999
2 60381  88.9749 294.5217 0015689  68.6186 291.6637 13.50995772 73483
QIANFAN-4               
1 60382U 24140D   26027.47664901  .00000180  00000+0  25935-3 0  9999
2 60382  88.9774 294.4258 0014745  59.7499 300.5110 13.50991426 73619
QIANFAN-5               
1 60383U 24140E   26027.45204697  .00000174  00000+0  24975-3 0  9996
2 60383  88.9749 294.5446 0016972  78.5544 281.7513 13.50993563 73471
QIANFAN-6               
1 60384U 24140F   26027.47261582  .00000168  00000+0  24095-3 0  9991
2 60384  88.9776 294.3009 0014901  65.0264 295.2433 13.50993488 73674
QIANFAN-7               
1 60385U 24140G   26027.51214942  .00001023  00000+0  40858-3 0  9991
2 60385  88.9784 288.3529 0012850 249.7356 110.2457 14.27734823 76922
QIANFAN-8               
1 60386U 24140H   26027.48088604  .00000160  00000+0  22799-3 0  9997
2 60386  88.9778 294.5382 0018368  66.7772 293.5311 13.50994857 73528
